#dP2023 10 18  0  0  0.00000000      96 __u+U IGS20 FIT  IAC
## 2284 259200.00000000   900.00000000 60235 0.0000000000000
+  119   C06C07C08C09C10C11C12C13C14C16C19C20C21C22C23C24C25
+        C26C27C28C29C30C32C33C34C35C36C37C38C39C40C41C42C43
+        C44C45C46E02E03E04E05E07E08E09E10E11E12E13E14E15E19
+        E21E24E25E26E27E30E31E33E34E36G01G02G03G04G05G06G07
+        G08G09G10G11G12G13G14G15G16G17G18G19G20G21G22G23G24
+        G25G26G27G28G29G30G31G32J02J03J04R01R02R03R04R05R07
+        R08R09R11R12R13R14R15R16R17R18R19R20R21R22R24R25R26
++         9  8  7  9  8  7  7  8  7  9  6  8  7  7  6  7  7
++         6  7  6  7  7  7  7  6  4  7  7  9 10  8  6  7  6
++         7 10  9  7  5  6  6  6  6  6  6  6  5  6  7  5  6
++         5  6  5  4  6  7  6  4  6  5  5  5  5  5  5  4  5
++         5  5  5  6  7  5  5  6  6  5  6  5  5  5  4  6  5
++         7  7  5  6  6  5  6  6  6  6  8  6  8  7  4  7  5
++         7  6  5  9  7  6  7  6  5  6  7  7  5  6  6  7  7
%c M  cc GPS ccc cccc cccc cccc cccc ccccc ccccc ccccc ccccc
%c cc cc ccc ccc cccc cccc cccc cccc ccccc ccccc ccccc ccccc
%f  0.0000000  0.000000000  0.00000000000  0.000000000000000
%f  0.0000000  0.000000000  0.00000000000  0.000000000000000
%i    0    0    0    0      0      0      0      0         0
%i    0    0    0    0      0      0      0      0         0
/* INFORMATION & ANALYSIS CENTER (IAC)      ULTRA-RAPID DATA
/* S/V CLOCKS ARE ALIGNED TO GNSS TIME                      
/* G:C1WC2W R:C1PC2P E:C1XC5X C:C2IC6I J:C1CC2S             
/* PCV:IGS20_2280 OL/AL:FES2004  NONE     YN ORB:CoN CLK:CoN
*  2023 10 18 18 45  0.00000000
PC06   -535.186335  29393.472126 -30079.011019     60.437757
PC07 -17499.722120  30224.581587  23584.715373   -178.736274
PC08 -10551.268932  40718.047414   4315.335845    289.681022
PC09   5972.592047  32448.707633 -25498.853422     24.996834
PC10  -8268.558382  30375.530301  28173.585370     14.424961
PC11  22644.667806  15819.823315   4138.001943    210.313172
PC12   7496.509936  18713.504349  19347.729645    892.518253
PC13  -6147.322492  41841.389149  -1540.851484    369.535262
PC14  15764.633527   7491.750146 -21779.719068    612.058978
PC16  -5400.880279  25979.656161 -32451.853914   -132.097548
PC19 -22071.300781    465.748846  17075.563731   -972.400318
PC20  -8461.703191 -13182.518572  23096.082466    192.573884
PC21 -11504.049701  20031.112617 -15640.636787   -969.310606
PC22 -23750.028981  14609.584868    827.260787   -261.152665
PC23  14527.951351 -11464.703769  20888.556067   -841.533303
PC24   7626.176224  25357.113024   8844.848886    507.255657
PC25  15945.745818   8517.461159  21254.650437    235.755701
PC26  -3656.425910  26585.694323  -7738.718254   -193.567703
PC27   1807.751261 -16664.845450 -22327.052290    215.326097
PC28  18298.632469  -6235.452067 -20120.143537    162.076657
PC29 -26062.525018  -8775.085107   4730.385188    189.471654
PC30 -16662.172487 -18156.903901 -13112.787931     -6.731314
PC32  11464.811204 -20145.330790  15549.644808   -530.318057
PC33  22037.158502   -512.934957 -17124.352516   -953.000244
PC34  17821.817818  17854.170558  11907.046362    283.941279
PC35 -18053.251795   7013.519722  20094.726772    522.445804
PC36 -15578.892587  -9789.403039 -20955.258870   -173.913466
PC37   4758.715716 -26160.824617   8432.361118   -857.450074
PC38 -14342.078613  37832.636206  12223.765666    111.980551
PC39  -9186.618005  23065.546374 -34017.673988     -5.290854
PC40 -24517.918300  24203.291706  24156.445193    -40.612793
PC41  23912.053449 -14304.667705  -1526.536694   -872.636121
PC42   7028.963619  14118.473689 -22986.430717   -518.883748
PC43  25980.136129   9398.973223  -3877.888631     44.517336
PC44  -1467.371789  16756.213582  22253.111973    265.629209
PC45 -14250.404106  12071.719663 -20744.188145    -37.384054
PC46  -8249.126572 -24702.405060  -9967.703618    -92.859962
PE02   6776.738863 -26621.829257 -10999.077357     71.220652
PE03    629.851787 -16990.316717  24219.304787    -66.088670
PE04  20447.752854  12257.457891 -17544.529587   -237.249604
PE05  21264.992433 -11856.803043  16828.782735     28.698028
PE07 -29580.102537   -526.957473    852.978316    -82.837007
PE08 -20012.898173 -12365.678528  17952.792313   -163.383699
PE09  29582.976257    595.343524  -1007.977247   -196.032364
PE10  20124.266336  16502.816984 -14120.256299   -572.137537
PE11  19558.048904   6289.772478 -21316.554676   3106.576732
PE12  17544.046599  23189.978126  -5518.044430   -741.709234
PE13 -19665.147436  -7052.607970  20972.640272    -19.659553
PE14  31477.941351  -1428.239127  -4101.736245    372.360520
PE15 -17376.976323 -23416.901937   5079.107652    -62.249289
PE19  -3617.691166  16732.095912 -24148.956554  -1398.351745
PE21 -18299.654543  22250.495257  -6806.261713   -559.186014
PE24  19705.457662  -3999.902597  21705.741348   -382.796636
PE25  18448.349342 -22007.894690   7170.220394     -3.436974
PE26 -10083.042205  13915.905708  24108.236974    255.044331
PE27 -19805.154099   4694.959776 -21489.689594   -177.765711
PE30  -9349.276347 -15809.950901 -23213.862503   -590.254943
PE31   9625.266730  15444.454381  23357.370778     -7.957942
PE33   4467.918932  25666.176135  14070.968191      0.578280
PE34  -4979.780201 -25823.451498 -13568.178499    -73.093868
PE36  10423.618216 -13183.964881 -24361.277939   -131.710595
PG01 -17724.940116  -8253.936877  17793.105958    163.598205
PG02 -19680.687386 -12407.482225  13486.640515   -540.404612
PG03 -17312.350079   3459.009936  19660.792400    -70.961960
PG04 -26613.284948   -757.678898   -536.306137    188.111870
PG05  10887.772036  11257.609299 -21622.122753   -147.000902
PG06   3798.934801  23322.968339  12100.417520    527.643475
PG07 -11749.580016   9910.742260 -21150.729985     36.941423
PG08 -24364.250380  -6067.520487  -9344.686547   -147.776141
PG09 -23588.895994   7352.318302  -9909.644217    -28.733681
PG10  10126.854203 -23883.660493   4990.368938    -57.860209
PG11  12023.241384  23715.188239   -111.118232   -420.976601
PG12  16855.586517    232.353125  20234.250918   -437.301856
PG13  17353.894058  13275.635635 -15449.052781    585.468790
PG14 -13115.928566  22941.781237   1482.895676    217.769444
PG15  25106.668740   3197.250385  -8919.831023     88.375172
PG16  -5773.831903 -16271.801608 -20367.615324   -437.018752
PG17 -11069.527245  13323.841004  20604.698153    723.805677
PG18  10125.095038 -11872.843066 -21457.777568   -452.767934
PG19  -1176.151012  14860.450564  21788.949579    386.734769
PG20   3731.137977  21363.240373 -15415.287321    406.158466
PG21 -19645.926166 -15635.618273  10472.750887    146.464218
PG22  -9208.797127  23567.616421   8986.739811    100.470772
PG23  16489.802439 -19218.815860  -7686.576459     84.676438
PG24  19920.247906  11316.165502  13395.051933   -349.389598
PG25  18394.777915 -13328.846560  13219.049991    473.330688
PG26    398.685354 -22934.797886 -13207.402327    222.408000
PG27 -14429.474318 -12924.891295 -18607.080432    -57.073496
PG28  -2867.733543 -22686.510556  13488.397400    -27.969361
PG29  24169.924126  -4829.741006 -10076.798034   -610.113810
PG30  -4180.320494  19173.911037 -17658.043734   -477.322339
PG31  -9146.992623 -24184.876727   4804.434864   -224.800491
PG32   5876.078568 -14928.719510  21314.569527   -574.413869
PJ02 -26945.539585  32094.210490   -638.612534     -5.923843
PJ03 -26181.564566  22313.212059  29494.516707     -5.468057
PJ04 -33828.365437  24500.620122  -1005.081727     71.319611
PR01  23284.501668 -10422.186294    192.890438     67.943690
PR02  13330.551098 -13807.358646  16798.692850    -22.382426
PR03  -4542.550655  -9905.515821  23102.418750     87.323370
PR04 -19318.118561   -595.032281  16680.351196    207.388751
PR05 -23888.517573   8909.575942   1219.885399    120.832366
PR07   5273.533206   9559.849615 -23018.561145     67.143393
PR08  19446.768742    394.525848 -16427.743403    -72.987555
PR09  -5531.135149  24098.695479  -6084.234192    148.354437
PR11   9138.114456   9968.399714  21636.237072   -200.938780
PR12  11133.806952 -11024.266437  20150.074389     32.484548
PR13   6661.191356 -23206.329592   8215.486306    -40.339115
PR14  -2619.750160 -22865.694285 -11005.417083     25.426281
PR15  -9546.125037  -8647.746507 -21997.209741     85.276822
PR16 -10950.837649  10803.262630 -20326.564216     19.771691
PR17 -14201.687347 -17756.295734 -11500.375485     26.933361
PR18 -20885.828765 -13824.988818   4960.777749    107.497255
PR19 -17561.392645  -4411.111629  17964.774658   -251.372606
PR20  -2037.743721  11510.316326  22679.910253   -102.032851
PR21  14683.111258  17877.689147  10789.480038    -46.548396
PR22  20574.935085  13889.123477  -5826.294524     89.293381
PR24   1317.191201 -12293.189562 -22286.081586    -28.712012
PR25  13341.736607  18505.537486  11447.186519     -5.504914
PR26  19155.220539    590.577693 -16828.979081    -20.184314
EOF
